LIZZIESAT-2 (LS-2)      
1 62383U 24247G   26068.49140277  .00009388  00000+0  34517-3 0  9997
2 62383  44.9909 117.0823 0004092 327.5136  32.5495 15.28222796 67716
STARLINK-33691          
1 63462U 25070C   26068.57971455  .00033652  00000+0  12258-2 0  9998
2 63462  43.0015 260.0728 0002174 299.0633  61.0000 15.27606595 52917
